[Satellite]
VERSION=1.1
NAME=RADUGA 18 [-]
NICKNAME=RADUGA 18 [-]
TLE1=1 16497U 86007A   15053.46910161 -.00000002  00000-0  00000+0 0  9992
TLE2=2 16497  15.2900 358.2442 0074133  93.2115  96.9757  0.98811196105072
